[{"OBJECT_NAME":"STARLINK-31311","OBJECT_ID":"2024-027T","EPOCH":"2026-03-09T23:26:47.851008","MEAN_MOTION":15.30172647,"ECCENTRICITY":0.00013077,"INCLINATION":53.1608,"RA_OF_ASC_NODE":306.0707,"ARG_OF_PERICENTER":72.0046,"MEAN_ANOMALY":288.1097,"EPHEMERIS_TYPE":0,"CLASSIFICATION_TYPE":"U","NORAD_CAT_ID":58948,"ELEMENT_SET_NO":999,"REV_AT_EPOCH":11740,"BSTAR":-1.1276791e-5,"MEAN_MOTION_DOT":-6.93e-6,"MEAN_MOTION_DDOT":0},{"OBJECT_NAME":"ARIANE 40 R\/B","OBJECT_ID":"1999-064C","EPOCH":"2026-03-09T18:24:37.025280","MEAN_MOTION":15.31364882,"ECCENTRICITY":0.00050095,"INCLINATION":98.1631,"RA_OF_ASC_NODE":150.8872,"ARG_OF_PERICENTER":91.4057,"MEAN_ANOMALY":268.7755,"EPHEMERIS_TYPE":0,"CLASSIFICATION_TYPE":"U","NORAD_CAT_ID":25979,"ELEMENT_SET_NO":999,"REV_AT_EPOCH":42869,"BSTAR":0.00066758353,"MEAN_MOTION_DOT":0.00020173,"MEAN_MOTION_DDOT":0}]
